{
    "type": "FeatureCollection",
    "features": [
        {
            "type": "Feature",
            "geometry": {
                "type": "Point",
                "coordinates": [
                    2.2062,
                    44.717
                ]
            },
            "properties": {
                "nom": "Gîte Hôtel Restaurant CRUZEL",
                "description": "Nouveautés au Complexe Hôtelier Gîte Hôtel Restaurant Cruzel !",
                "adresse": ", 20 avenue d'Aurillac 15600 Saint-Étienne-de-Maurs",
                "telephone": "04 71 46 75 04",
                "email": "henri@hotrestocruzel.fr",
                "site_web": "https://www.hotel-cruzel.com/",
                "photo": "https://static.apidae-tourisme.com/filestore/objets-touristiques/images/207/208/28430543.jpg"
            }
        },
        {
            "type": "Feature",
            "geometry": {
                "type": "Point",
                "coordinates": [
                    2.419119,
                    44.644474
                ]
            },
            "properties": {
                "nom": "Hôtel La Terrasse",
                "description": "L'hôtel La Terrasse est situé au cœur du petit village de Vieillevie, en bordure de la rivière Lot, à l'extrême sud du département du Cantal.",
                "adresse": ", Le Bourg 15120 Vieillevie",
                "telephone": "04 71 49 94 00",
                "email": "info@hotel-terrasse.com",
                "site_web": "http://www.hotel-terrasse.com",
                "photo": "https://static.apidae-tourisme.com/filestore/objets-touristiques/images/45/168/20228141.jpg"
            }
        },
        {
            "type": "Feature",
            "geometry": {
                "type": "Point",
                "coordinates": [
                    2.500758,
                    44.708274
                ]
            },
            "properties": {
                "nom": "Hôtel L'Auberge Fleurie",
                "description": "L' Auberge Fleurie est une charmante étape aux confins du Lot et la Truyère.",
                "adresse": ", 2 avenue d'Aurillac 15120 Montsalvy",
                "telephone": "04 71 49 20 02",
                "email": "info@auberge-fleurie.com",
                "site_web": "http://www.auberge-fleurie.com",
                "photo": "https://static.apidae-tourisme.com/filestore/objets-touristiques/images/113/228/9102449.jpg"
            }
        },
        {
            "type": "Feature",
            "geometry": {
                "type": "Point",
                "coordinates": [
                    2.693085,
                    45.246611
                ]
            },
            "properties": {
                "nom": "Auberge le Cheylet",
                "description": "Petit hôtel familial de 7 chambres spacieuses avec salle de bain et sanitaire privatif. Situé au pied du Puy Mary et disposant d'un restaurant traditionnel dans l'établissement.",
                "adresse": "25 rue du Champs de Foire 15400 Apchon",
                "telephone": "06 61 61 30 56",
                "email": "aubergelecheylet15@outlook.fr",
                "site_web": "",
                "photo": "https://static.apidae-tourisme.com/filestore/objets-touristiques/images/87/129/25264471.jpg"
            }
        },
        {
            "type": "Feature",
            "geometry": {
                "type": "Point",
                "coordinates": [
                    2.659346,
                    45.281492
                ]
            },
            "properties": {
                "nom": "Hôtel Le Saint-Georges",
                "description": "Hôtel Saint Georges, un équipement moderne dans une bâtisse du 19ème siècle.",
                "adresse": "5 rue du Capitaine Chevalier 15400 Riom-ès-Montagnes",
                "telephone": "04 71 78 00 15",
                "email": "info@hotel-saint-georges.com",
                "site_web": "http://www.hotel-saint-georges.com",
                "photo": "https://static.apidae-tourisme.com/filestore/objets-touristiques/images/178/134/38307506.png"
            }
        },
        {
            "type": "Feature",
            "geometry": {
                "type": "Point",
                "coordinates": [
                    2.655208,
                    45.284288
                ]
            },
            "properties": {
                "nom": "The Originals Hôtel le Lutéa",
                "description": "Hôtel climatisé avec possibilité de restauration pour la clientèle de hôtel. Vous nous trouverez dans le Parc Naturel des volcans d'Auvergne dans la petite ville de Riom-ès-Montagnes.",
                "adresse": "Rue du Champ de Foire 15400 Riom-ès-Montagnes",
                "telephone": "04 71 78 19 43",
                "email": "hotel.lutea@gmail.com",
                "site_web": "https://www.hotel-lutea.fr/fr",
                "photo": "https://static.apidae-tourisme.com/filestore/objets-touristiques/images/31/82/36000287.jpg"
            }
        },
        {
            "type": "Feature",
            "geometry": {
                "type": "Point",
                "coordinates": [
                    2.716689,
                    45.209705
                ]
            },
            "properties": {
                "nom": "Grand Hôtel de la Vallée",
                "description": "Situé en plein cœur du Parc Naturel des Volcans d'Auvergne, l'hôtel vous accueille dans un esprit de convivialité et de bonne humeur.",
                "adresse": "12 route du Puy Mary 15400 Cheylade",
                "telephone": "04 43 05 13 41",
                "email": "sasjordan-davidrichard@bbox.fr",
                "site_web": "http://www.hotel-cheylade.fr",
                "photo": "https://static.apidae-tourisme.com/filestore/objets-touristiques/images/164/212/8901796.jpg"
            }
        },
        {
            "type": "Feature",
            "geometry": {
                "type": "Point",
                "coordinates": [
                    2.438953,
                    45.090428
                ]
            },
            "properties": {
                "nom": "Auberge des Volcans",
                "description": "Dans l'enceinte d'une auberge, au cœur d'un bourg très calme, 6 chambres.",
                "adresse": "1 route des camps 15140 Saint-Chamant",
                "telephone": "09 83 09 72 05",
                "email": "aubergedesvolcans15@gmail.com",
                "site_web": "",
                "photo": "https://static.apidae-tourisme.com/filestore/objets-touristiques/images/252/205/35769852.jpg"
            }
        },
        {
            "type": "Feature",
            "geometry": {
                "type": "Point",
                "coordinates": [
                    2.495458,
                    45.13915
                ]
            },
            "properties": {
                "nom": "Le Bailliage",
                "description": "Situé aux portes de la cité sagranière, propose 23 chambres, une table bistronomique réputée avec sa terrasse ouverte sur le jardin, une salle de séminaire, un spa et une piscine extérieure chauffée en été.",
                "adresse": "31 rue Notre-Dame 15140 Salers",
                "telephone": "04 71 40 71 95",
                "email": "info@salers-hotel-bailliage.com",
                "site_web": "http://www.salers-hotel-bailliage.com",
                "photo": "https://static.apidae-tourisme.com/filestore/objets-touristiques/images/101/105/41380197.jpg"
            }
        },
        {
            "type": "Feature",
            "geometry": {
                "type": "Point",
                "coordinates": [
                    2.493892,
                    45.136492
                ]
            },
            "properties": {
                "nom": "Les Remparts",
                "description": "Surplombant la vallée de la Maronne, l'établissement fait face au plus vaste volcan d'Europe depuis maintenant 3 générations. Il est doté de 15 chambres spacieuses, une cuisine régionale soignée, un spa, une terrasse panoramique ouverte sur la campagne.",
                "adresse": "32 avenue de Barrouze 15140 Salers",
                "telephone": "04 71 40 70 33",
                "email": "hoteldesremparts@yahoo.fr",
                "site_web": "http://www.salers-hotel-remparts.com",
                "photo": "https://static.apidae-tourisme.com/filestore/objets-touristiques/images/133/201/41404805.png"
            }
        },
        {
            "type": "Feature",
            "geometry": {
                "type": "Point",
                "coordinates": [
                    2.623259,
                    45.1547
                ]
            },
            "properties": {
                "nom": "Les Voyageurs",
                "description": "11 chambres (certaines avec vue sur le Puy Mary) toutes équipées d'une salle de bain avec WC, TV - LL à disposition - chaise et lit bébé - WIFI - Terrasse panoramique sur le Puy Mary, bar - Restaurant - Accueil individuel et groupe. Situé sur le GR400.",
                "adresse": "8 rue St-Germain 15380 Le Falgoux",
                "telephone": "04 71 69 51 59",
                "email": "roystephan@neuf.fr",
                "site_web": "https://www.hotel-lefalgoux.fr/",
                "photo": "https://static.apidae-tourisme.com/filestore/objets-touristiques/images/232/111/41512936.jpg"
            }
        },
        {
            "type": "Feature",
            "geometry": {
                "type": "Point",
                "coordinates": [
                    2.48364,
                    45.053568
                ]
            },
            "properties": {
                "nom": "Auberge de Tournemire",
                "description": "5 chambres au coeur du joli village de Tournemire classé parmi les plus beaux villages de France. Dont 3 chambres (studios) avec kitchenette.",
                "adresse": "15 rue Edouard Marty 15310 Tournemire",
                "telephone": "04 71 47 61 28",
                "email": "louisfert@wanadoo.fr",
                "site_web": "http://www.aubergedetournemire.com",
                "photo": "https://static.apidae-tourisme.com/filestore/objets-touristiques/images/230/180/35632358.jpg"
            }
        },
        {
            "type": "Feature",
            "geometry": {
                "type": "Point",
                "coordinates": [
                    2.494256,
                    45.138323
                ]
            },
            "properties": {
                "nom": "Le Beffroi",
                "description": "Au coeur de la Cité médiévale de Salers, l'Hôtel Le Beffroi vous accueille dans cadre chaleureux au charme authentique. Accès direct à la Porte du Beffroi et à la Place Tyssandier D'Escous par une rue piétonne.",
                "adresse": "17 rue du Beffroi 15140 Salers",
                "telephone": "04 71 40 70 11",
                "email": "lebeffroi15@gmail.com",
                "site_web": "https://www.hotelrestaurantlebeffroi.fr/",
                "photo": "https://static.apidae-tourisme.com/filestore/objets-touristiques/images/235/212/36426987.jpg"
            }
        },
        {
            "type": "Feature",
            "geometry": {
                "type": "Point",
                "coordinates": [
                    2.427571,
                    45.114882
                ]
            },
            "properties": {
                "nom": "La Source du Mont",
                "description": "13 chambres toutes équipées SB, wc, TV, téléphone, accès internet dont 1 appartement 2 pièces - Maison de caractère entourée d'un grand parc - WIFI - Piscine.",
                "adresse": "9 rue du Foirail 15140 Saint-Martin-Valmeroux",
                "telephone": "04 71 69 28 55",
                "email": "lasourcedumont@wanadoo.fr",
                "site_web": "https://www.hotelsourcedumont.com/",
                "photo": "https://static.apidae-tourisme.com/filestore/objets-touristiques/images/20/35/41493268.jpg"
            }
        },
        {
            "type": "Feature",
            "geometry": {
                "type": "Point",
                "coordinates": [
                    2.53408,
                    45.436875
                ]
            },
            "properties": {
                "nom": "Hôtel Delmas",
                "description": "",
                "adresse": "200 place de l'église 15270 Lanobre",
                "telephone": "04 71 40 30 95",
                "email": "",
                "site_web": "",
                "photo": ""
            }
        },
        {
            "type": "Feature",
            "geometry": {
                "type": "Point",
                "coordinates": [
                    2.683864,
                    44.95048
                ]
            },
            "properties": {
                "nom": "L'Auberge des Montagnes",
                "description": "Les « Maisons de Montagne » : 3 maisons de charme qui allient authenticité, confort et modernité. Laissez vous séduire par la chaleur du bois et la douceur de vivre à « l’Auberge des Montagnes ».\r\nLabellisé Qualité Auvergne",
                "adresse": "Le bourg 15800 Pailherols",
                "telephone": "04 71 47 57 01",
                "email": "contact@laubergedesmontagnes.com",
                "site_web": "http://www.auberge-des-montagnes.com",
                "photo": "https://static.apidae-tourisme.com/filestore/objets-touristiques/images/106/69/9127274.jpg"
            }
        },
        {
            "type": "Feature",
            "geometry": {
                "type": "Point",
                "coordinates": [
                    2.632041,
                    44.976464
                ]
            },
            "properties": {
                "nom": "Bel Horizon",
                "description": "Eté comme hiver, pour une étape professionnelle, une escapade ou un long séjour, descendez au Bel Horizon.  Ses chambres confortables s’ouvrent sur la vallée de la Cère et sur les sommets cantaliens.",
                "adresse": "5 rue Paul Doumer 15800 Vic-sur-Cère",
                "telephone": "04 71 47 50 06",
                "email": "info@hotel-bel-horizon.com",
                "site_web": "http://www.hotel-bel-horizon.com",
                "photo": "https://static.apidae-tourisme.com/filestore/objets-touristiques/images/93/98/28074589.jpg"
            }
        },
        {
            "type": "Feature",
            "geometry": {
                "type": "Point",
                "coordinates": [
                    2.71171,
                    45.052473
                ]
            },
            "properties": {
                "nom": "Le Brunet",
                "description": "L'hôtel Le Brunet et un complexe alpin idéalement situé pour les sports d'hiver, la randonnée... Des chambres confortables aux larges balcons s'ouvrant sur les Monts du Cantal. Un parc agréable pour de vrais moments de repos.",
                "adresse": "Le bourg 15800 Saint-Jacques-des-Blats",
                "telephone": "04 71 47 05 86",
                "email": "hotel.brunet@wanadoo.fr",
                "site_web": "http://www.hotel-brunet.com",
                "photo": "https://static.apidae-tourisme.com/filestore/objets-touristiques/images/241/231/9168881.jpg"
            }
        },
        {
            "type": "Feature",
            "geometry": {
                "type": "Point",
                "coordinates": [
                    2.63478,
                    44.978625
                ]
            },
            "properties": {
                "nom": "Hôtel des Bains",
                "description": "Dans un grand parc de plus de 4000m², l'Hôtel des Bains offre un confort de qualité. Toutes les chambres ont vue sur les montagnes. Plusieurs salons à disposition. Piscine et espace bien être couvert.",
                "adresse": "15 Avenue de la promenade 15800 Vic-sur-Cère",
                "telephone": "04 71 47 50 16",
                "email": "contact@arvernehotel.com",
                "site_web": "http://www.arvernehotel.com",
                "photo": "https://static.apidae-tourisme.com/filestore/objets-touristiques/images/73/244/37942345.jpg"
            }
        },
        {
            "type": "Feature",
            "geometry": {
                "type": "Point",
                "coordinates": [
                    2.665099,
                    45.01438
                ]
            },
            "properties": {
                "nom": "L'Elancèze",
                "description": "Dans un  paisible village, entre les sites \"Chaos de Casteltinet, Pas des Rocs et  Elancèze\", cet hôtel d'architecture moderne, aux chambres spacieuses et d’un bon rapport qualité prix, offre une pause idéale pour les randonneurs et amoureux de la nature.",
                "adresse": "30 Grand'Rue 15800 Thiézac",
                "telephone": "04 71 47 00 22",
                "email": "info@elanceze.com",
                "site_web": "http://www.elanceze.com",
                "photo": "https://static.apidae-tourisme.com/filestore/objets-touristiques/images/235/157/36085227.jpg"
            }
        },
        {
            "type": "Feature",
            "geometry": {
                "type": "Point",
                "coordinates": [
                    2.686619,
                    44.952283
                ]
            },
            "properties": {
                "nom": "Les Maisons de Montagne - Chez Marie",
                "description": "Découvrez un petit coin de paradis : \"Chez Marie \" un lieu immergé dans la nature avec authenticité, confort et modernité.  Une véritable invitation au bonheur et à la rêverie… Une offre complète avec des chambres, des suites apparts et des lofts.",
                "adresse": "Le bourg 15800 Pailherols",
                "telephone": "04 71 47 57 01",
                "email": "contact@hotel-chezmarie.com",
                "site_web": "https://www.hotel-chezmarie.com/",
                "photo": "https://static.apidae-tourisme.com/filestore/objets-touristiques/images/218/162/28287706.jpg"
            }
        },
        {
            "type": "Feature",
            "geometry": {
                "type": "Point",
                "coordinates": [
                    2.711,
                    45.051
                ]
            },
            "properties": {
                "nom": "Appart'Hôtel Le Griou",
                "description": "Notre établissement « Appart'Hôtel Le Griou » est situé à 1000 m d'altitude dans le charmant village de Saint Jacques des Blats, au pied des volcans de notre cher Cantal et à deux pas de la station de ski du Lioran.",
                "adresse": "14 avenue Adrien Ruelle 15800 Saint-Jacques-des-Blats",
                "telephone": "04 71 47 06 25",
                "email": "hotel.legriou@outlook.fr",
                "site_web": "https://www.hotel-griou.com",
                "photo": "https://static.apidae-tourisme.com/filestore/objets-touristiques/images/113/183/38123377.jpg"
            }
        },
        {
            "type": "Feature",
            "geometry": {
                "type": "Point",
                "coordinates": [
                    2.581497,
                    44.951094
                ]
            },
            "properties": {
                "nom": "Le Val du Cantal",
                "description": "VillageFani innove et développe un nouveau concept : Hébergement et Restauration 24h/24",
                "adresse": "9 allée des Monts d'Auvergne 15800 Polminhac",
                "telephone": "04 71 23 02 01",
                "email": "valducantal@villagefani.com",
                "site_web": "http://www.villagefani.com",
                "photo": "https://static.apidae-tourisme.com/filestore/objets-touristiques/images/145/216/21158033.jpg"
            }
        },
        {
            "type": "Feature",
            "geometry": {
                "type": "Point",
                "coordinates": [
                    2.626635,
                    44.979149
                ]
            },
            "properties": {
                "nom": "Le Beauséjour",
                "description": "Un excellent niveau de confort, des chambres spacieuses, un personnel avenant et efficace, l’Hôtel Beauséjour vous donnera envie de prolonger votre séjour ! C’est l’occasion rêvée pour profiter d’un instant de repos.",
                "adresse": "4 avenue André Mercier 15800 Vic-sur-Cère",
                "telephone": "04 71 47 50 27",
                "email": "contact@beausejour-vic.fr",
                "site_web": "http://www.beausejour-vic.fr",
                "photo": "https://static.apidae-tourisme.com/filestore/objets-touristiques/images/155/42/29633179.jpg"
            }
        },
        {
            "type": "Feature",
            "geometry": {
                "type": "Point",
                "coordinates": [
                    2.619456,
                    44.975263
                ]
            },
            "properties": {
                "nom": "Family Hôtel",
                "description": "Eté, Hiver, Le Logis Family-Hôtel vous accueille en famille, en groupe avec des séjours hôtel demi-pension/pension complète ou locatif en cottages. A votre disposition, 2 piscines chauffées :  intérieure et extérieure, jacuzzi, parc : tennis, boulodrome.",
                "adresse": "19 Avenue Emile Duclaux 15800 Vic-sur-Cère",
                "telephone": "04 71 47 50 49",
                "email": "resafamily@orange.fr",
                "site_web": "http://www.family-hotel.fr",
                "photo": "https://static.apidae-tourisme.com/filestore/objets-touristiques/images/238/26/9116398.jpg"
            }
        },
        {
            "type": "Feature",
            "geometry": {
                "type": "Point",
                "coordinates": [
                    2.612143,
                    44.874626
                ]
            },
            "properties": {
                "nom": "L'Auberge de la Sapinière",
                "description": "L’auberge de la Sapinière propose ses 3 chambres rénovées, charmantes et calmes, pour des séjours paisibles et gourmands au cœur du village de Cros de Ronesque.",
                "adresse": "Le bourg 15130 Cros-de-Ronesque",
                "telephone": "06 09 95 19 30",
                "email": "rourejl@aol.com",
                "site_web": "https://auberge-sapiniere-cantal.fr/",
                "photo": "https://static.apidae-tourisme.com/filestore/objets-touristiques/images/254/52/36058366.jpg"
            }
        },
        {
            "type": "Feature",
            "geometry": {
                "type": "Point",
                "coordinates": [
                    2.713355,
                    45.049012
                ]
            },
            "properties": {
                "nom": "L'Escoundillou",
                "description": "Niché au coeur du Parc Naturel Régional des Volcans d'Auvergne, sur le chemin de St Jacques de Compostelle, à 5 min du Lioran, plus grand domaine skiable du Massif Central, au pied des célèbres \"Plomb du Cantal et \"Puy Griou\".",
                "adresse": "29-31 Route de la Gare 15800 Saint-Jacques-des-Blats",
                "telephone": "04 71 47 06 42",
                "email": "contact@hotel-escoundillou.com",
                "site_web": "http://www.escoundillou.com",
                "photo": "https://static.apidae-tourisme.com/filestore/objets-touristiques/images/89/201/35047769.jpeg"
            }
        },
        {
            "type": "Feature",
            "geometry": {
                "type": "Point",
                "coordinates": [
                    2.631837,
                    44.974848
                ]
            },
            "properties": {
                "nom": "Le Saint Joseph",
                "description": "Gilles et Jessica vous accueilleront dans cet hôtel familial (7 chambres), posé sur une parcelle de 850 m², avec une esplanade offrant une belle vue sur la vallée et les montagnes.",
                "adresse": "4 avenue du Barrez 15800 Vic-sur-Cère",
                "telephone": "04 71 47 51 92",
                "email": "hotel.st.joseph15800@gmail.com",
                "site_web": "",
                "photo": "https://static.apidae-tourisme.com/filestore/objets-touristiques/images/220/10/9177820.jpg"
            }
        },
        {
            "type": "Feature",
            "geometry": {
                "type": "Point",
                "coordinates": [
                    2.718902,
                    45.069581
                ]
            },
            "properties": {
                "nom": "Les Chazes",
                "description": "L'hôtel des Chazes vous propose des chambres ou duplex tout confort avec vue sur le Plomb du Cantal.",
                "adresse": "Les Chazes 15800 Saint-Jacques-des-Blats",
                "telephone": "04 71 47 05 68",
                "email": "info@hotel-des-chazes.com",
                "site_web": "http://www.hotel-des-chazes.com",
                "photo": "https://static.apidae-tourisme.com/filestore/objets-touristiques/images/68/100/35218500.jpg"
            }
        },
        {
            "type": "Feature",
            "geometry": {
                "type": "Point",
                "coordinates": [
                    2.671566,
                    45.015848
                ]
            },
            "properties": {
                "nom": "Le Castel du Cantal",
                "description": "Idéalement situé sur la N122, à 25 km d'Aurillac, la capitale du Cantal et 12 km du Lioran, la station de ski  du plus grand volcan d'Europe , le Castel du Cantal, entièrement rénové en 2024,  vous accueille  24h/24  dans des chambres au confort moderne.",
                "adresse": "Grand'Rue 15800 Thiézac",
                "telephone": "471230201",
                "email": "info@fanihotels.com",
                "site_web": "http://www.fanihotels.com",
                "photo": "https://static.apidae-tourisme.com/filestore/objets-touristiques/images/154/183/36419482.jpeg"
            }
        },
        {
            "type": "Feature",
            "geometry": {
                "type": "Point",
                "coordinates": [
                    2.655347,
                    44.899394
                ]
            },
            "properties": {
                "nom": "Auberge de Raulhac",
                "description": "Depuis 2010, Annick et François vous accueillent avec simplicité et convivialité dans leur auberge.",
                "adresse": "Le bourg 15800 Raulhac",
                "telephone": "04 71 47 00 59",
                "email": "aubergeraulhac@gmail.com",
                "site_web": "http://www.aubergederaulhac.com",
                "photo": "https://static.apidae-tourisme.com/filestore/objets-touristiques/images/20/164/21472276.jpg"
            }
        },
        {
            "type": "Feature",
            "geometry": {
                "type": "Point",
                "coordinates": [
                    2.446775,
                    44.912943
                ]
            },
            "properties": {
                "nom": "Hôtel Ibis",
                "description": "Confort, moderne, ambiance chaleureuse, séjour sans stress au cœur du Cantal !",
                "adresse": "9 allée Georges Pompidou 15000 Aurillac",
                "telephone": "04 71 64 15 11",
                "email": "h9121@accor.com",
                "site_web": "http://www.all.com",
                "photo": "https://static.apidae-tourisme.com/filestore/objets-touristiques/images/128/111/12873600.jpg"
            }
        },
        {
            "type": "Feature",
            "geometry": {
                "type": "Point",
                "coordinates": [
                    2.433815,
                    44.924794
                ]
            },
            "properties": {
                "nom": "La Thomasse",
                "description": "A 15 minutes du centre historique d’Aurillac, dans un quartier résidentiel empreint de quiétude, l’hôtel La Thomasse dévoile ses atouts.",
                "adresse": "26  rue du Docteur Louis Mallet 15000 Aurillac",
                "telephone": "04 71 48 26 47",
                "email": "accueil@hotel-la-thomasse.com",
                "site_web": "http://www.hotel-la-thomasse.com",
                "photo": "https://static.apidae-tourisme.com/filestore/objets-touristiques/images/95/94/30760543.jpeg"
            }
        },
        {
            "type": "Feature",
            "geometry": {
                "type": "Point",
                "coordinates": [
                    2.55964,
                    45.016692
                ]
            },
            "properties": {
                "nom": "Le Lac des Graves",
                "description": "L’Hôtel le Lac des Graves*** se situe au cœur d’un parc de 40 ha. dans la vallée de la Jordanne à 15 minutes d’Aurillac, à 25 mn du Puy Mary et à 1h de Salers.",
                "adresse": "Jaulhac 15590 Lascelle",
                "telephone": "04 71 47 94 06",
                "email": "contact@lacdesgraves.com",
                "site_web": "http://www.lacdesgraves.com",
                "photo": "https://static.apidae-tourisme.com/filestore/objets-touristiques/images/15/19/37229327.jpeg"
            }
        },
        {
            "type": "Feature",
            "geometry": {
                "type": "Point",
                "coordinates": [
                    2.455775,
                    44.913462
                ]
            },
            "properties": {
                "nom": "Hôtel B&B Aurillac - Le Lioran",
                "description": "Anciennement Hôtel Auréna, et situé à la sortie d'Aurillac sur la route de la station du Lioran, cette ancienne fabrique de parapluie donne à l'hôtel B&B Aurillac-Le Lioran sa structure atypique.",
                "adresse": "41  avenue Georges Pompidou 15000 Aurillac",
                "telephone": "04 71 62 09 01",
                "email": "bb_4855@hotelbb.com",
                "site_web": "",
                "photo": "https://static.apidae-tourisme.com/filestore/objets-touristiques/images/98/112/28340322.png"
            }
        },
        {
            "type": "Feature",
            "geometry": {
                "type": "Point",
                "coordinates": [
                    2.444263,
                    44.911224
                ]
            },
            "properties": {
                "nom": "Hôtel Le Relax",
                "description": "Hôtel familial situé en périphérie de la ville d'Aurillac dans la zone commerciale de la Ponétie, à proximité des grandes enseignes (accessibles à pied).",
                "adresse": "113 avenue du Général Leclerc 15000 Aurillac",
                "telephone": "04 71 63 60 00",
                "email": "hotelaurillaclerelax@outlook.com",
                "site_web": "http://www.hotellerelax.fr",
                "photo": "https://static.apidae-tourisme.com/filestore/objets-touristiques/images/245/166/37529333.jpeg"
            }
        },
        {
            "type": "Feature",
            "geometry": {
                "type": "Point",
                "coordinates": [
                    2.512179,
                    44.890622
                ]
            },
            "properties": {
                "nom": "Château de Salles",
                "description": "Château de Salles – Nuitée d’exception au cœur du Cantal!\r\nÀ 10 minutes d’Aurillac, le Château de Salles vous ouvre les portes de ses chambres et suites de charme, nichées dans un domaine du XVe siècle entouré d’un parc de 8 hectares.",
                "adresse": "Route du Château de Salles 15130 Vézac",
                "telephone": "04 71 46 96 05",
                "email": "info@chateausalles.com",
                "site_web": "https://www.chateausalles.com",
                "photo": "https://static.apidae-tourisme.com/filestore/objets-touristiques/images/50/111/12873522.jpg"
            }
        },
        {
            "type": "Feature",
            "geometry": {
                "type": "Point",
                "coordinates": [
                    2.653885,
                    45.067701
                ]
            },
            "properties": {
                "nom": "Aux Genêts d'Or",
                "description": "Dernier hôtel en haut de la vallée de la Jordanne, avant le célèbre grand site du Puy Mary.",
                "adresse": "Le Bourg 15590 Mandailles-Saint-Julien",
                "telephone": "04 71 47 96 45",
                "email": "hotelauxgenetsdor@orange.fr",
                "site_web": "http://www.hotelauxgenetsdor.com",
                "photo": "https://static.apidae-tourisme.com/filestore/objets-touristiques/images/25/42/27273753.jpeg"
            }
        },
        {
            "type": "Feature",
            "geometry": {
                "type": "Point",
                "coordinates": [
                    2.443094,
                    44.92676
                ]
            },
            "properties": {
                "nom": "Hôtel des Carmes",
                "description": "En plein centre-ville d’Aurillac, l’Hôtel des Carmes dépoussière les codes du savoir recevoir.",
                "adresse": "20 rue des Carmes 15000 Aurillac",
                "telephone": "04 71 48 01 69",
                "email": "",
                "site_web": "http://www.hoteldescarmes.fr",
                "photo": "https://static.apidae-tourisme.com/filestore/objets-touristiques/images/124/111/12873596.jpg"
            }
        },
        {
            "type": "Feature",
            "geometry": {
                "type": "Point",
                "coordinates": [
                    2.443886,
                    44.913753
                ]
            },
            "properties": {
                "nom": "Le Campanile",
                "description": "Votre hôtel-restaurant Campanile*** vous accueille dans son cadre reposant et ouvert sur la nature.",
                "adresse": "3  rue Louise Michel, Avenue Georges Pompidou, 15000 Aurillac",
                "telephone": "04 71 64 64 84",
                "email": "aurillac@campanile.fr",
                "site_web": "",
                "photo": "https://static.apidae-tourisme.com/filestore/objets-touristiques/images/151/93/7495063.jpg"
            }
        },
        {
            "type": "Feature",
            "geometry": {
                "type": "Point",
                "coordinates": [
                    2.447119,
                    44.928592
                ]
            },
            "properties": {
                "nom": "The Originals Boutique, Grand Hôtel Saint Pierre",
                "description": "En plein centre-ville d’Aurillac, au pied des monts du Cantal, le Grand Hôtel Saint-Pierre vous accueille tout au long de l’année pour vous offrir une expérience unique dans une atmosphère chaleureuse.",
                "adresse": "16 cours Monthyon 15000 Aurillac",
                "telephone": "04 71 48 00 24",
                "email": "h1501@theoriginalshotels.com",
                "site_web": "http://www.hotelsaintpierreaurillac.com",
                "photo": "https://static.apidae-tourisme.com/filestore/objets-touristiques/images/14/112/12873742.jpg"
            }
        },
        {
            "type": "Feature",
            "geometry": {
                "type": "Point",
                "coordinates": [
                    2.658207,
                    45.071853
                ]
            },
            "properties": {
                "nom": "L'Enclos du Puy Mary",
                "description": "Situé au coeur du Grand Site du Puy Mary, Sylvie et Michel vous accueillent à l'Enclos dans un cadre authentique.",
                "adresse": "6 route des volcans, Le  Bourg 15590 Mandailles-Saint-Julien",
                "telephone": "06 76 69 21 65",
                "email": "contact@enclos-puymary.fr",
                "site_web": "http://www.enclos-puymary.fr",
                "photo": "https://static.apidae-tourisme.com/filestore/objets-touristiques/images/242/111/12873714.jpg"
            }
        },
        {
            "type": "Feature",
            "geometry": {
                "type": "Point",
                "coordinates": [
                    2.582268,
                    45.028266
                ]
            },
            "properties": {
                "nom": "Les Tilleuls",
                "description": "Laurent Fritsch dirige avec son épouse Mylène, cet hôtel familial de 14 chambres, décorées avec goût, agréables, et toutes différentes.",
                "adresse": "Le  Bourg 15590 Saint-Cirgues-de-Jordanne",
                "telephone": "04 71 47 92 19",
                "email": "info@hotellestilleuls.com",
                "site_web": "https://www.hotellestilleuls.com",
                "photo": "https://static.apidae-tourisme.com/filestore/objets-touristiques/images/12/112/12873740.jpg"
            }
        },
        {
            "type": "Feature",
            "geometry": {
                "type": "Point",
                "coordinates": [
                    2.420874,
                    44.987719
                ]
            },
            "properties": {
                "nom": "Le Prado",
                "description": "Situé sur la route des sites les plus touristiques du Cantal (Puy Mary, Salers, Tournemire…),",
                "adresse": "16 avenue de la Prade 15250 Jussac",
                "telephone": "04 71 46 66 37",
                "email": "leprado4@wanadoo.fr",
                "site_web": "http://www.hotel-le-prado.com",
                "photo": "https://static.apidae-tourisme.com/filestore/objets-touristiques/images/169/146/2134697.jpg"
            }
        },
        {
            "type": "Feature",
            "geometry": {
                "type": "Point",
                "coordinates": [
                    2.583789,
                    44.807741
                ]
            },
            "properties": {
                "nom": "La Bergerie",
                "description": "Dans un village typique du Cantal, Vezels-Roussy (20 km d'Aurillac), Céline et Marcel vous accueillent à la Bergerie** dans un cadre familial et authentique.",
                "adresse": "Le  Bourg 15130 Vezels-Roussy",
                "telephone": "04 71 49 42 90",
                "email": "info@hotelrestaurantlabergerie.com",
                "site_web": "http://www.hotelrestaurantlabergerie.com",
                "photo": "https://static.apidae-tourisme.com/filestore/objets-touristiques/images/155/93/7495067.jpg"
            }
        },
        {
            "type": "Feature",
            "geometry": {
                "type": "Point",
                "coordinates": [
                    2.442859,
                    44.927878
                ]
            },
            "properties": {
                "nom": "Le Renaissance",
                "description": "Situé en plein centre ville, votre hôtel restaurant, rénové en 2021 dispose de chambre doubles, twins et familiales, jusqu’à 5 personnes.",
                "adresse": "13, Place du Square 15000 Aurillac",
                "telephone": "04 71 43 16 29",
                "email": "info@hotel-le-renaissance.fr",
                "site_web": "http://www.hotel-le-renaissance.fr",
                "photo": "https://static.apidae-tourisme.com/filestore/objets-touristiques/images/238/111/12873710.jpg"
            }
        },
        {
            "type": "Feature",
            "geometry": {
                "type": "Point",
                "coordinates": [
                    2.442048,
                    44.928177
                ]
            },
            "properties": {
                "nom": "Grand Hôtel de Bordeaux",
                "description": "Le Grand Hôtel de Bordeaux est riche de son expérience et d’un personnel soucieux de satisfaire chacun de ses hôtes.",
                "adresse": "2  avenue de la République 15000 Aurillac",
                "telephone": "04 71 48 01 84",
                "email": "contact@hotel-de-bordeaux.fr",
                "site_web": "http://www.hotel-de-bordeaux.fr",
                "photo": "https://static.apidae-tourisme.com/filestore/objets-touristiques/images/148/202/21023380.jpg"
            }
        },
        {
            "type": "Feature",
            "geometry": {
                "type": "Point",
                "coordinates": [
                    2.442945,
                    44.92781
                ]
            },
            "properties": {
                "nom": "Square Hôtel",
                "description": "Hôtel situé en centre-ville, proche tous commerces, banques, cinéma, théâtre, gare, hôpital, taxi.",
                "adresse": "15 Place du Square 15000 Aurillac",
                "telephone": "04 71 48 24 72",
                "email": "contact@hotel-le-square.com",
                "site_web": "http://hotel-le-square.com",
                "photo": "https://static.apidae-tourisme.com/filestore/objets-touristiques/images/175/93/30760367.jpeg"
            }
        },
        {
            "type": "Feature",
            "geometry": {
                "type": "Point",
                "coordinates": [
                    2.263181,
                    44.922965
                ]
            },
            "properties": {
                "nom": "Hôtel du Lac",
                "description": "Situé au calme dans un cadre verdoyant et à proximité du Lac Saint Etienne Cantalès.",
                "adresse": "Le  Bourg 15150 Lacapelle-Viescamp",
                "telephone": "04 71 46 31 57",
                "email": "hoteldulac.15150@gmail.com",
                "site_web": "http://www.hoteldulac-cantal.com",
                "photo": "https://static.apidae-tourisme.com/filestore/objets-touristiques/images/193/204/19582145.png"
            }
        },
        {
            "type": "Feature",
            "geometry": {
                "type": "Point",
                "coordinates": [
                    2.421679,
                    44.909388
                ]
            },
            "properties": {
                "nom": "The Originals Hotel Access Aeroport",
                "description": "Profitez d’une paisible halte entourée par la gastronomie, la culture et la nature d’Aurillac et du Cantal. \r\n\"Notre mission est de vous assurer un séjour en toute tranquillité, agrémenté de chaleureux conseils pour visiter la région.\"",
                "adresse": "141 avenue de Conthe 15000 Aurillac",
                "telephone": "04 71 63 96 39",
                "email": "H1505@theoriginalshotels.com",
                "site_web": "http://www.theoriginalshotels.com",
                "photo": "https://static.apidae-tourisme.com/filestore/objets-touristiques/images/148/171/8498068.jpg"
            }
        },
        {
            "type": "Feature",
            "geometry": {
                "type": "Point",
                "coordinates": [
                    3.057169,
                    45.18304
                ]
            },
            "properties": {
                "nom": "Hôtel-restaurant Les Voyageurs",
                "description": "Hôtel-restaurant au cœur du village de Ferrières Saint-Mary, dans la vallée de l'Alagnon reliant les Monts du Cantal à Massiac.",
                "adresse": "Le bourg 15170 Ferrières-Saint-Mary",
                "telephone": "04 71 20 60 24",
                "email": "baptista.alex63@yahoo.fr",
                "site_web": "",
                "photo": "https://static.apidae-tourisme.com/filestore/objets-touristiques/images/201/77/12864969.jpg"
            }
        },
        {
            "type": "Feature",
            "geometry": {
                "type": "Point",
                "coordinates": [
                    3.10132,
                    45.036792
                ]
            },
            "properties": {
                "nom": "Brit Hotel",
                "description": "Que vous veniez seul ou à deux, en couple ou en famille, le Brit Hotel** à Saint-Flour vous propose des chambres adaptées et confortables, en alliant service soigné de qualité et prix abordables.",
                "adresse": "Route de Clermont-Ferrand, Rue de la Résistance 15100 Saint-Flour",
                "telephone": "04 71 60 55 55",
                "email": "saint-flour@brithotel.fr",
                "site_web": "https://saint-flour.brithotel.fr/",
                "photo": "https://static.apidae-tourisme.com/filestore/objets-touristiques/images/23/67/3621655.jpg"
            }
        },
        {
            "type": "Feature",
            "geometry": {
                "type": "Point",
                "coordinates": [
                    3.090407,
                    45.032964
                ]
            },
            "properties": {
                "nom": "Hôtel du Nord",
                "description": "Hôtel situé en plein cœur du centre historique avec une agréable terrasse en été. Les parties communes, bar et salle de petit-déjeuner sont décorée dans le style art nouveau, pour une ambiance florale et colorée.",
                "adresse": "18, rue des Lacs 15100 Saint-Flour",
                "telephone": "04 71 60 28 00",
                "email": "hoteldunordsf@gmail.com",
                "site_web": "https://www.hoteldunord-saintflour.com/",
                "photo": "https://static.apidae-tourisme.com/filestore/objets-touristiques/images/244/190/15318772.jpeg"
            }
        },
        {
            "type": "Feature",
            "geometry": {
                "type": "Point",
                "coordinates": [
                    3.171787,
                    44.973481
                ]
            },
            "properties": {
                "nom": "Garabit Hôtel",
                "description": "Cadre exceptionnel, à 5 min de l’A75 au pied du Viaduc de Garabit. Piscine. 20 chambres ont été rénovées. 2 Chambres PMR. \r\nGroupes : Accueil traditionnel par du personnel. \r\nIndividuels : Accueil automatisé avec code. Concept d'hôtel sans accueil physique.",
                "adresse": "Route du Viaduc - GARABIT 15100 Anglards-de-Saint-Flour",
                "telephone": "07 57 94 40 60",
                "email": "info@fanihotels.com",
                "site_web": "https://www.fanihotels.com",
                "photo": "https://static.apidae-tourisme.com/filestore/objets-touristiques/images/171/180/2143403.jpg"
            }
        },
        {
            "type": "Feature",
            "geometry": {
                "type": "Point",
                "coordinates": [
                    3.196077,
                    45.264164
                ]
            },
            "properties": {
                "nom": "Hôtel La Colombière",
                "description": "Hôtel tout confort, accueillant, chambres modernes et confortables, en bordure de l'A75, idéal pour les soirées étapes. Très belle terrasse donnant sur un parc longeant la rivière. Salle de bain privative pour toutes les chambres.",
                "adresse": "4 route de Clermont-Ferrand 15500 Massiac",
                "telephone": "04 71 23 18 50",
                "email": "contact@hotel-lacolombiere.com",
                "site_web": "http://www.hotel-lacolombiere.com",
                "photo": "https://static.apidae-tourisme.com/filestore/objets-touristiques/images/254/63/3817470.jpg"
            }
        },
        {
            "type": "Feature",
            "geometry": {
                "type": "Point",
                "coordinates": [
                    3.166877,
                    44.979436
                ]
            },
            "properties": {
                "nom": "Le Panoramic Garabit",
                "description": "Bienvenue à l’hôtel Le Panoramic Garabit, l’adresse incontournable de Garabit pour vivre une expérience entre horizon, nature et patrimoine",
                "adresse": "2 route du Viaduc - Garabit 15100 Anglards-de-Saint-Flour",
                "telephone": "04 15 54 24 66",
                "email": "reservation@lepanoramicgarabit.com",
                "site_web": "",
                "photo": "https://static.apidae-tourisme.com/filestore/objets-touristiques/images/208/12/41880784.jpeg"
            }
        },
        {
            "type": "Feature",
            "geometry": {
                "type": "Point",
                "coordinates": [
                    3.102329,
                    45.033517
                ]
            },
            "properties": {
                "nom": "Hôtel l'Etape",
                "description": "Situé dans la ville basse de Saint-Flour, le Grand Hôtel l'Etape est un hôtel-restaurant 3 étoiles alliant confort moderne et charme authentique.\r\nIl offre à ses hôtes un cadre chaleureux et élégant, idéal pour un séjour agréable et reposant.",
                "adresse": "18 avenue de la République 15100 Saint-Flour",
                "telephone": "04 71 60 13 03",
                "email": "info@hotel-etape.com",
                "site_web": "http://www.hotel-etape.com",
                "photo": "https://static.apidae-tourisme.com/filestore/objets-touristiques/images/247/190/11124471.jpg"
            }
        },
        {
            "type": "Feature",
            "geometry": {
                "type": "Point",
                "coordinates": [
                    2.803,
                    44.9226
                ]
            },
            "properties": {
                "nom": "Hôtel-Restaurant de la Poste",
                "description": "Hôtel** - Restaurant, commerce de famille centenaire au sein de la Vallée de Brezons.",
                "adresse": "7, rue du 19 Mars 1962 15230 Saint-Martin-sous-Vigouroux",
                "telephone": "04 71 23 33 61",
                "email": "info@hoteldelaposte-cantal.com",
                "site_web": "http://www.hoteldelaposte-cantal.com",
                "photo": "https://static.apidae-tourisme.com/filestore/objets-touristiques/images/88/220/41999448.jpg"
            }
        },
        {
            "type": "Feature",
            "geometry": {
                "type": "Point",
                "coordinates": [
                    3.187001,
                    45.164599
                ]
            },
            "properties": {
                "nom": "Auberge de l'Allagnonette",
                "description": "Les gérants vous accueillent dans leur établissent , bâtiment de caractère situé au cœur d'un petit village, proche d'une rivière, avec terrasse agréable. Chambres tout confort pour deux à quatre personnes. Une carte avec des produits locaux et de saison.",
                "adresse": "Le bourg 15500 Saint-Poncy",
                "telephone": "04 71 23 12 85",
                "email": "info@auberge-allagnonette.com",
                "site_web": "http://www.auberge-allagnonette.com",
                "photo": "https://static.apidae-tourisme.com/filestore/objets-touristiques/images/108/116/12940396.jpg"
            }
        },
        {
            "type": "Feature",
            "geometry": {
                "type": "Point",
                "coordinates": [
                    2.83685,
                    44.921412
                ]
            },
            "properties": {
                "nom": "Hotel du Midi",
                "description": "Hôtel Logis de France avec restaurant gastronomique classé Table gourmande.",
                "adresse": "5, Avenue Georges Pompidou 15230 Pierrefort",
                "telephone": "04 71 23 30 20",
                "email": "hoteldumidi.pierrefort@orange.fr",
                "site_web": "http://www.hoteldumidi-pierrefort.com",
                "photo": "https://static.apidae-tourisme.com/filestore/objets-touristiques/images/94/161/6988126.jpg"
            }
        },
        {
            "type": "Feature",
            "geometry": {
                "type": "Point",
                "coordinates": [
                    3.135295,
                    45.008335
                ]
            },
            "properties": {
                "nom": "Hôtel et Spa Le Bout du Monde",
                "description": "L'Hôtel Spa \"Le Bout du Monde\" est situé à 10 mn. de St-Flour dans le Cantal (et à 10 min. de l'A75). Blotti dans une petite vallée près de la rivière à truites \"l'Ander\", on y accède par une petite route bordée d'arbres.",
                "adresse": "3, Rue du Moulin de Saint-Michel, Le Bout du Monde 15100 Saint-Georges",
                "telephone": "04 71 60 15 84",
                "email": "info@hotel-leboutdumonde.com",
                "site_web": "http://www.hotel-leboutdumonde.com",
                "photo": "https://static.apidae-tourisme.com/filestore/objets-touristiques/images/22/66/3621398.jpg"
            }
        },
        {
            "type": "Feature",
            "geometry": {
                "type": "Point",
                "coordinates": [
                    3.106783,
                    45.034555
                ]
            },
            "properties": {
                "nom": "Hôtel des Messageries",
                "description": "Hôtel de charme dans quartier calme près de la gare  - Vue sur Saint-Flour et le plateau verdoyant de la Chaumette.\r\nTraiteur et location de salles.",
                "adresse": "23, avenue du Général de Gaulle, Hôtel des messageries 15100 Saint-Flour",
                "telephone": "04 71 60 11 36",
                "email": "info@hotel-messageries.com",
                "site_web": "http://www.saintflourtraiteur.fr",
                "photo": "https://static.apidae-tourisme.com/filestore/objets-touristiques/images/53/78/8867381.jpg"
            }
        },
        {
            "type": "Feature",
            "geometry": {
                "type": "Point",
                "coordinates": [
                    3.139343,
                    45.030712
                ]
            },
            "properties": {
                "nom": "Hôtel Cantal Cottages",
                "description": "L'hôtel Cantal Cottages vous propose une solution d'hébergement pratique pour rayonner dans le Cantal proche de Saint-Flour à la découverte de la Haute Auvergne.",
                "adresse": "40, Le Crozatier 15100 Saint-Georges",
                "telephone": "04 71 20 29 25",
                "email": "hotelcantalcottages@orange.fr",
                "site_web": "http://www.hotel-cantal-cottages.com",
                "photo": "https://static.apidae-tourisme.com/filestore/objets-touristiques/images/213/219/41999317.jpeg"
            }
        },
        {
            "type": "Feature",
            "geometry": {
                "type": "Point",
                "coordinates": [
                    3.146601,
                    44.940539
                ]
            },
            "properties": {
                "nom": "Hôtel Le Relais des Sites",
                "description": "Une étape conviviale dans un petit hôtel sur le circuit des Gorges de la Truyère. Calme et repos agrémentés des meilleures recettes de la cuisine auvergnate. 7 chambres de 2 à 4 pers. Douche et WC dans les chambres - 1 salle restaurant 50 couverts.",
                "adresse": "Le Bourg - Faverolles 15320 Val d'Arcomie",
                "telephone": "04 71 23 47 80",
                "email": "lerelaisdessites@gmail.com",
                "site_web": "",
                "photo": "https://static.apidae-tourisme.com/filestore/objets-touristiques/images/217/151/30316505.jpg"
            }
        },
        {
            "type": "Feature",
            "geometry": {
                "type": "Point",
                "coordinates": [
                    3.094572,
                    45.033676
                ]
            },
            "properties": {
                "nom": "Hôtel des Roches",
                "description": "Hôtel situé au coeur de la cité historique de Saint-Flour à proximité des commerces, de la cathédrale St Pierre. Une équipe jeune et dynamique vous accueille dans un cadre chaleureux en plein coeur de la cité médiévale face à la cathédrale.",
                "adresse": "7-8, Place d'Armes 15100 Saint-Flour",
                "telephone": "04 71 60 09 70",
                "email": "hotel_des_roches@yahoo.fr",
                "site_web": "http://www.hoteldesroches.eu",
                "photo": "https://static.apidae-tourisme.com/filestore/objets-touristiques/images/63/100/3630143.jpg"
            }
        },
        {
            "type": "Feature",
            "geometry": {
                "type": "Point",
                "coordinates": [
                    3.165957,
                    44.998838
                ]
            },
            "properties": {
                "nom": "Hôtel La Méridienne",
                "description": "Situé au pied de la Margeride, et non loin du Viaduc de Garabit majestueux\r\nouvrage de Gustave Eiffel, l’hôtel-restaurant de la Méridienne, vous invite à venir profiter du calme de la nature et des plaisirs de la table.",
                "adresse": ", La Gazelle 15100 Anglards-de-Saint-Flour",
                "telephone": "04 71 23 40 53",
                "email": "info@hoteldelameridienne.com",
                "site_web": "http://www.hoteldelameridienne.com",
                "photo": "https://static.apidae-tourisme.com/filestore/objets-touristiques/images/191/161/6857151.jpg"
            }
        },
        {
            "type": "Feature",
            "geometry": {
                "type": "Point",
                "coordinates": [
                    3.003382,
                    44.851247
                ]
            },
            "properties": {
                "nom": "Hôtel du Ban",
                "description": "Intégré au centre thermal, l'hôtel du Ban vous permettra d'être à proximité des soins. Avec ses vastes chambres équipées tout confort, offrez vous un pur moment de détente.",
                "adresse": "27 avenue du Président Pompidou, BP 21 15110 Chaudes-Aigues",
                "telephone": "04 71 23 51 06",
                "email": "info@caleden.com",
                "site_web": "http://www.caleden.com",
                "photo": "https://static.apidae-tourisme.com/filestore/objets-touristiques/images/217/80/36655321.jpg"
            }
        },
        {
            "type": "Feature",
            "geometry": {
                "type": "Point",
                "coordinates": [
                    3.000754,
                    44.843887
                ]
            },
            "properties": {
                "nom": "Relais et Châteaux Serge Vieira",
                "description": "Situé sur les hauteurs de Chaudes-Aigues dans le Cantal, le Château du Couffour propose un cadre à la fois naturel et contemporain, où les éléments se mêlent harmonieusement au béton et à l’acier Corten.",
                "adresse": "Le Couffour 15110 Chaudes-Aigues",
                "telephone": "04 71 20 73 85",
                "email": "reservation@sergevieira.com",
                "site_web": "http://www.sergevieira.com",
                "photo": "https://static.apidae-tourisme.com/filestore/objets-touristiques/images/162/230/7268002.jpg"
            }
        },
        {
            "type": "Feature",
            "geometry": {
                "type": "Point",
                "coordinates": [
                    3.003617,
                    44.85219
                ]
            },
            "properties": {
                "nom": "Hôtel Beauséjour",
                "description": "Situé à quelques pas de l’établissement thermal et au centre du village.",
                "adresse": "9 avenue Georges Pompidou 15110 Chaudes-Aigues",
                "telephone": "04 71 23 52 37",
                "email": "beausejour@wanadoo.fr",
                "site_web": "http://www.hotel-beausejour-chaudes-aigues.com",
                "photo": "https://static.apidae-tourisme.com/filestore/objets-touristiques/images/147/129/20939155.jpg"
            }
        },
        {
            "type": "Feature",
            "geometry": {
                "type": "Point",
                "coordinates": [
                    2.998238,
                    44.92762
                ]
            },
            "properties": {
                "nom": "Hôtel Le Relais de La Poste",
                "description": "Nous vous réservons un accueil chaleureux dans un cadre rustique et rénové au cœur de la vallée de la Truyère.",
                "adresse": "Cordesse 15260 Neuvéglise-sur-Truyère",
                "telephone": "04 71 23 82 32",
                "email": "relais.poste@wanadoo.fr",
                "site_web": "http://www.relaisdelaposte.com",
                "photo": "https://static.apidae-tourisme.com/filestore/objets-touristiques/images/235/95/19750891.jpg"
            }
        },
        {
            "type": "Feature",
            "geometry": {
                "type": "Point",
                "coordinates": [
                    2.7336,
                    45.085452
                ]
            },
            "properties": {
                "nom": "Le Buron de Font de Cère",
                "description": "Au Col de Font de Cère, auberge rustique avec cheminée, ambiance familiale et chaleureuse.",
                "adresse": "Col de Font de Cère 15300 Le Lioran",
                "telephone": "04 71 49 50 03",
                "email": "buronlioran@gmail.com",
                "site_web": "",
                "photo": "https://static.apidae-tourisme.com/filestore/objets-touristiques/images/195/171/9939907.jpg"
            }
        },
        {
            "type": "Feature",
            "geometry": {
                "type": "Point",
                "coordinates": [
                    2.805358,
                    45.115434
                ]
            },
            "properties": {
                "nom": "Hôtel Bellevue",
                "description": "Au cœur du village de Laveissière, à mi-chemin entre Murat et la station du Lioran, à 5 min des pistes de ski, Anne-Sophie et Gaëtan vous accueillent dans leur gîte-hôtel de montagne face au plan d'eau.",
                "adresse": "1 rue du 19 mars 1962 15300 Laveissière",
                "telephone": "04 71 20 01 22",
                "email": "montagne-bellevue@orange.fr",
                "site_web": "http://www.montagnebellevue.com",
                "photo": "https://static.apidae-tourisme.com/filestore/objets-touristiques/images/209/135/26904529.jpg"
            }
        },
        {
            "type": "Feature",
            "geometry": {
                "type": "Point",
                "coordinates": [
                    2.750927,
                    45.08312
                ]
            },
            "properties": {
                "nom": "Hôtel - Restaurant Le Rocher du Cerf",
                "description": "L'hôtel du Rocher du Cerf est idéalement situé en plein cœur de la station du Lioran, au pied du domaine skiable et des chemins pédestres.",
                "adresse": "4 Route du Rocher du Cerf 15300 Le Lioran",
                "telephone": "04 71 49 50 14",
                "email": "bonjour@lerocherducerf.com",
                "site_web": "http://www.lerocherducerf.com",
                "photo": "https://static.apidae-tourisme.com/filestore/objets-touristiques/images/50/125/34700594.png"
            }
        },
        {
            "type": "Feature",
            "geometry": {
                "type": "Point",
                "coordinates": [
                    2.335947,
                    45.219367
                ]
            },
            "properties": {
                "nom": "L'Ecu de France",
                "description": "Dans un cadre plein de charme découvrez notre hôtel-restaurant Logis Cosy, établissement de caractère proche du centre ville, salon tout confort, bar avec écran géant, salle de petit déjeuner, 1 salle de restaurant et 1 salle restau-véranda.",
                "adresse": "6 avenue Charles et Raymonde Périé 15200 Mauriac",
                "telephone": "04 71 68 00 75",
                "email": "ecudefrance@hotmail.fr",
                "site_web": "http://www.ecudefrance-mauriac.com",
                "photo": "https://static.apidae-tourisme.com/filestore/objets-touristiques/images/126/205/2346366.jpg"
            }
        },
        {
            "type": "Feature",
            "geometry": {
                "type": "Point",
                "coordinates": [
                    2.33099,
                    45.219367
                ]
            },
            "properties": {
                "nom": "Le Saint-Mary",
                "description": "Charmant hôtel, tranquillité et calme, à quelques pas du cœur historique, du lac Val Saint-Jean et du golf. 7 chambres toutes équipées, salle d'eau, wc, TV, salle de restaurant de 50 couverts (accueil groupe)",
                "adresse": "27 rue saint Mary 15200 Mauriac",
                "telephone": "04 71 68 00 79",
                "email": "claudine.abeillon@orange.fr",
                "site_web": "",
                "photo": "https://static.apidae-tourisme.com/filestore/objets-touristiques/images/197/185/16300485.jpg"
            }
        },
        {
            "type": "Feature",
            "geometry": {
                "type": "Point",
                "coordinates": [
                    2.351782,
                    44.781454
                ]
            },
            "properties": {
                "nom": "Auberge de la Tour",
                "description": "Entre volcans d’Auvergne et douceur de la vallée du Lot, la Châtaigneraie offre son doux visage et ses beaux paysages ! Dans cet environnement privilégié, l’Auberge de la Tour au cœur de la Petite Cité de Caractère® de Marcolès, est une étape de charme.",
                "adresse": "2 place de la Fontaine 15220 Marcolès",
                "telephone": "04 71 46 99 15",
                "email": "contact@aubergedela-tour.com",
                "site_web": "http://www.aubergedela-tour.com/",
                "photo": "https://static.apidae-tourisme.com/filestore/objets-touristiques/images/91/48/29831259.jpg"
            }
        },
        {
            "type": "Feature",
            "geometry": {
                "type": "Point",
                "coordinates": [
                    2.498283,
                    45.117753
                ]
            },
            "properties": {
                "nom": "Auberge de l'Aspre",
                "description": "L'Auberge de l'Aspre est située dans le charmant village de Fontanges, dans la vallée de l'Aspre, à 5km de Salers et 25km du Puy Mary.",
                "adresse": "145 route de la chapelle 15140 Fontanges",
                "telephone": "",
                "email": "",
                "site_web": "",
                "photo": "https://static.apidae-tourisme.com/filestore/objets-touristiques/images/214/178/5747414.jpg"
            }
        },
        {
            "type": "Feature",
            "geometry": {
                "type": "Point",
                "coordinates": [
                    2.226834,
                    45.133534
                ]
            },
            "properties": {
                "nom": "Hôtel du Commerce",
                "description": "Installé dans le Pays de Salers en xaintrie cantalienne, l'Hôtel du Commerce vous propose un établissement moderne situé en plein centre de la petite cité de caractère de Pleaux...",
                "adresse": "7 rue Raymond Mil 15700 Pleaux",
                "telephone": "04 71 40 41 11",
                "email": "hotelpleaux@gmail.com",
                "site_web": "https://www.hotel-pays-de-salers.fr/",
                "photo": "https://static.apidae-tourisme.com/filestore/objets-touristiques/images/51/165/9413939.jpg"
            }
        },
        {
            "type": "Feature",
            "geometry": {
                "type": "Point",
                "coordinates": [
                    2.832327,
                    45.078566
                ]
            },
            "properties": {
                "nom": "Hôtel Bar Restaurant  Le Plomb du Cantal",
                "description": "Hôtel Bar Restaurant de caractère situé dans le joli village de montagne d'Albepierre-Bredons, à 6km de la station de ski familiale de Prat de Bouc, au pied du Plomb du Cantal, sur le parcours du GR400.",
                "adresse": "9 route du Plomb du Cantal 15300 Albepierre-Bredons",
                "telephone": "04 71 20 04 02",
                "email": "hotelplombcantal@free.fr",
                "site_web": "http://www.hotelplombcantal.com",
                "photo": "https://static.apidae-tourisme.com/filestore/objets-touristiques/images/168/181/17806760.jpg"
            }
        },
        {
            "type": "Feature",
            "geometry": {
                "type": "Point",
                "coordinates": [
                    2.869395,
                    45.109673
                ]
            },
            "properties": {
                "nom": "Hostellerie du Cantal",
                "description": "L'Hostellerie du Cantal se situe à Murat séduisante cité médiévale de Haute Auvergne. 20 chambres tout confort à disposition. Salle de réception s'ouvrant sur jardin, espace spa et parking. Hébergement en toute liberté, hôtel sans contact, ouvert 24h/24.",
                "adresse": "18, avenue du Docteur Mallet 15300 Murat",
                "telephone": "04 71 23 02 01",
                "email": "info@fanihotels.com",
                "site_web": "https://notre.guide/hostellerieducantal/",
                "photo": "https://static.apidae-tourisme.com/filestore/objets-touristiques/images/226/175/36417506.jpg"
            }
        },
        {
            "type": "Feature",
            "geometry": {
                "type": "Point",
                "coordinates": [
                    2.974848,
                    45.126109
                ]
            },
            "properties": {
                "nom": "Hôtel des Voyageurs - Chez Betty",
                "description": "L'hôtel-restaurant des Voyageurs \"Chez Betty\" vous accueille dans ses 15 chambres rénovées. Un restaurant est à votre disposition proposant des spécialités régionales, pizzas et plat du jour.",
                "adresse": "2, rue du commerce 15170 Neussargues-Moissac",
                "telephone": "04 71 20 52 05",
                "email": "hoteldesvoyageurschezbetty@orange.fr",
                "site_web": "http://www.chezbetty.fr",
                "photo": "https://static.apidae-tourisme.com/filestore/objets-touristiques/images/71/98/28467783.jpg"
            }
        },
        {
            "type": "Feature",
            "geometry": {
                "type": "Point",
                "coordinates": [
                    2.882885,
                    45.186782
                ]
            },
            "properties": {
                "nom": "Instants d'Absolu - Ecolodge & spa",
                "description": "Goûtez au bonheur d'un bain de jouvence à fleur de lac... d'une cuisine de l'instant (menu surprise tel un voyage culinaire chaque jour), de chambres douillettes.",
                "adresse": "Lac du Pêcher 15300 Chavagnac",
                "telephone": "04 71 20 83 09",
                "email": "info@ecolodge-france.com",
                "site_web": "http://www.ecolodge-france.com",
                "photo": "https://static.apidae-tourisme.com/filestore/objets-touristiques/images/90/100/35742810.jpg"
            }
        },
        {
            "type": "Feature",
            "geometry": {
                "type": "Point",
                "coordinates": [
                    2.868535,
                    45.109596
                ]
            },
            "properties": {
                "nom": "Aux Globe Trotters",
                "description": "L'hôtel \"Aux Globe-Trotters\" situé au centre de Murat et juste en face de la gare dispose de 20 chambres confortables décorées dans un style campagnard.",
                "adresse": "22 avenue du Docteur Louis Mallet 15300 Murat",
                "telephone": "04 71 20 16 88",
                "email": "globe.trotters@wanadoo.fr",
                "site_web": "http://hotel-murat-cantal.com",
                "photo": "https://static.apidae-tourisme.com/filestore/objets-touristiques/images/20/12/35654676.jpg"
            }
        },
        {
            "type": "Feature",
            "geometry": {
                "type": "Point",
                "coordinates": [
                    2.933992,
                    45.230159
                ]
            },
            "properties": {
                "nom": "Le Relais des Remparts",
                "description": "En plein cœur du Cézallier, entre les vastes pâturages d’été et le massif Cantalien ou culminent le Puy Mary et le Plomb du Cantal, à 20 min de la station du Lioran, au centre d’Allanche, cité de l’estive...",
                "adresse": "5 avenue René Rollier 15160 Allanche",
                "telephone": "04 71 20 98 00",
                "email": "contact@relaisdesremparts.com",
                "site_web": "http://www.relaisdesremparts.com",
                "photo": "https://static.apidae-tourisme.com/filestore/objets-touristiques/images/120/47/29110136.jpeg"
            }
        },
        {
            "type": "Feature",
            "geometry": {
                "type": "Point",
                "coordinates": [
                    2.769318,
                    45.33504
                ]
            },
            "properties": {
                "nom": "Hôtel Le Lac des Moines",
                "description": "Hôtel-restaurant au bord d'un lac de 10 ha en l'entrée du bourg de Condat, entouré de forêts et verdure.",
                "adresse": ", La Chèvre Blanche 15190 Condat",
                "telephone": "04 71 78 65 96",
                "email": "contact@lacdesmoines.fr",
                "site_web": "http://www.lacdesmoines.fr",
                "photo": "https://static.apidae-tourisme.com/filestore/objets-touristiques/images/181/63/3817397.jpg"
            }
        },
        {
            "type": "Feature",
            "geometry": {
                "type": "Point",
                "coordinates": [
                    3.003134,
                    44.697868
                ]
            },
            "properties": {
                "nom": "Hôtel restaurant \"Chez Remise\"",
                "description": "Un hôtel de village au coeur de l’Aubrac (à 22 km de Chaudes-Aigues).",
                "adresse": "8 place de la Frique 15110 Saint-Urcize",
                "telephone": "04 71 23 20 02",
                "email": "hotelremise@gmail.com",
                "site_web": "https://www.chez-remise-restaurant-saint-urcize.fr",
                "photo": "https://static.apidae-tourisme.com/filestore/objets-touristiques/images/83/242/3666515.jpg"
            }
        },
        {
            "type": "Feature",
            "geometry": {
                "type": "Point",
                "coordinates": [
                    3.176723,
                    44.972237
                ]
            },
            "properties": {
                "nom": "Hôtel Le Beau Site",
                "description": "Une étape ou séjour face au Viaduc de Garabit.\r\nUn hôtel 3 * et un restaurant gastronomique à 10 min de l'A 75. Vue imprenable sur le viaduc de Gustave Eiffel, illuminé en soirée. Label Restaurant Savoureux.\r\nChambres confort, supérieure et suites junior.",
                "adresse": "23 GARABIT 15320 Val d'Arcomie",
                "telephone": "04 71 23 41 46",
                "email": "info@beau-site-hotel.com",
                "site_web": "http://www.beau-site-hotel.com",
                "photo": "https://static.apidae-tourisme.com/filestore/objets-touristiques/images/106/12/15141994.jpg"
            }
        },
        {
            "type": "Feature",
            "geometry": {
                "type": "Point",
                "coordinates": [
                    3.003302,
                    44.851623
                ]
            },
            "properties": {
                "nom": "Hôtel restaurant Sodade",
                "description": "L’Hôtel & Restaurant SODADE est le second établissement des maisons Vieira, récompensé d’un Bib Gourmand par le Guide Michelin.",
                "adresse": "21 avenue Georges Pompidou 15110 Chaudes-Aigues",
                "telephone": "04 71 60 10 23",
                "email": "reservation@hotelsodade.com",
                "site_web": "http://www.sergevieira.com",
                "photo": "https://static.apidae-tourisme.com/filestore/objets-touristiques/images/162/39/9381794.jpg"
            }
        },
        {
            "type": "Feature",
            "geometry": {
                "type": "Point",
                "coordinates": [
                    2.31386,
                    44.815294
                ]
            },
            "properties": {
                "nom": "Auberge La Tomette - Hôtel",
                "description": "Vous êtes au coeur de la Châtaigneraie, entre Quercy et monts d'Auvergne, à 25 km au sud d'Aurillac. Nichée à mi-colline dans un cadre de verdure, l'Auberge La Tomette vous accueille à Vitrac, dans le Cantal.",
                "adresse": ", Le Bourg 15220 Vitrac",
                "telephone": "04 71 64 70 94",
                "email": "info@auberge-la-tomette.com",
                "site_web": "http://www.auberge-la-tomette.com",
                "photo": "https://static.apidae-tourisme.com/filestore/objets-touristiques/images/196/153/11573700.jpg"
            }
        },
        {
            "type": "Feature",
            "geometry": {
                "type": "Point",
                "coordinates": [
                    2.381725,
                    44.933848
                ]
            },
            "properties": {
                "nom": "Maxotel",
                "description": "Notre hôtel MAXOTEL, situé à Ytrac près d'Aurillac, vous accueille du Lundi au dimanche avec ses 10 chambres toutes équipées de : salle de bain privative, télévision écran plat, accès WIFI gratuit & illimité.",
                "adresse": "Place d'Espinat 15000 Ytrac",
                "telephone": "04 71 43 07 72",
                "email": "maxotel.ytrac15@gmail.com",
                "site_web": "http://www.hotel-restaurant-aurillac.fr/",
                "photo": "https://static.apidae-tourisme.com/filestore/objets-touristiques/images/199/133/7505351.jpg"
            }
        },
        {
            "type": "Feature",
            "geometry": {
                "type": "Point",
                "coordinates": [
                    2.5002,
                    45.147
                ]
            },
            "properties": {
                "nom": "La Bastide du Cantal",
                "description": "Sur la route du Puy Mary, dominant le Village de Salers, 25 chambres entièrement rénovées en 2020, dotées d’un confort moderne. Dans ce cadre paradisiaque, au grand calme, une piscine est à disposition. Elle sera chauffée en 2026",
                "adresse": "9 route du Puy Mary, Le Mouriol-bas 15140 Salers",
                "telephone": "04 77 69 35 49",
                "email": "info@fanihotels.com",
                "site_web": "http://www.villagefani.com",
                "photo": "https://static.apidae-tourisme.com/filestore/objets-touristiques/images/35/147/27235107.jpg"
            }
        },
        {
            "type": "Feature",
            "geometry": {
                "type": "Point",
                "coordinates": [
                    3.198062,
                    45.253845
                ]
            },
            "properties": {
                "nom": "Les portes du Cantal",
                "description": "Situé à 1.5km de l'A75, l'Hôtel LES PORTES DU CANTAL, 36 chambres bien équipées,  offre à Massiac une étape  idéale : ouvert 24h/24, vous arrivez quand vous voulez, restauration 24h/24 en libre accès . Accueil téléphonique 24h/24. Piscine en été",
                "adresse": "26 avenue du Général De Gaulle 15500 Massiac",
                "telephone": "04 71 23 02 01",
                "email": "lesportesducantal@villagefani.com",
                "site_web": "https://www.fanihotels.com",
                "photo": "https://static.apidae-tourisme.com/filestore/objets-touristiques/images/21/143/27299605.jpg"
            }
        },
        {
            "type": "Feature",
            "geometry": {
                "type": "Point",
                "coordinates": [
                    2.269762,
                    45.244251
                ]
            },
            "properties": {
                "nom": "Hostellerie de La Bruyère",
                "description": "A quelques minutes de la rivière Dordogne, cachée au milieu d'un parc de 5 hectares, l'Hostellerie de la Bruyère est une invitation à séjourner dans un lieu où l'atmosphère rime avec zénitude, à l'ombre de séquoias plus que centenaires.",
                "adresse": "La Bruyère 15200 Chalvignac",
                "telephone": "04 43 55 42 47",
                "email": "contact@hostellerielabruyere.fr",
                "site_web": "",
                "photo": "https://static.apidae-tourisme.com/filestore/objets-touristiques/images/234/225/8184298.jpg"
            }
        },
        {
            "type": "Feature",
            "geometry": {
                "type": "Point",
                "coordinates": [
                    2.51313,
                    45.456618
                ]
            },
            "properties": {
                "nom": "Auberge Le Beaulieu (fermée temporairement)",
                "description": "Auberge au calme à proximité de la retenue du barrage de Bort-les-Orgues.",
                "adresse": "6 rue des Gabariers 15270 Beaulieu",
                "telephone": "04 71 69 42 79",
                "email": "lebeaulieu15@gmail.com",
                "site_web": "",
                "photo": "https://static.apidae-tourisme.com/filestore/objets-touristiques/images/187/177/17150395.jpeg"
            }
        },
        {
            "type": "Feature",
            "geometry": {
                "type": "Point",
                "coordinates": [
                    2.44228,
                    44.929521
                ]
            },
            "properties": {
                "nom": "Hôtel Zadig",
                "description": "Au cœur d’Aurillac, entrez dans un univers contemporain et chaleureux où se mélangent artisanat local et savoir-faire multiples afin de continuer votre voyage au sein même de l’hôtel Zadig.\r\nUn cadre, une ambiance, un service de qualité ... et une âme.",
                "adresse": "6 rue Beauclair 15000 Aurillac",
                "telephone": "04 15 32 03 09",
                "email": "contact@hotelzadig.com",
                "site_web": "https://www.hotelzadig.com",
                "photo": "https://static.apidae-tourisme.com/filestore/objets-touristiques/images/162/111/12873634.jpg"
            }
        },
        {
            "type": "Feature",
            "geometry": {
                "type": "Point",
                "coordinates": [
                    3.088077,
                    45.031764
                ]
            },
            "properties": {
                "nom": "Hôtel Restaurant de l'Ancien Grand Séminaire",
                "description": "Faites l'expérience unique d'un lieu de plus de 200 ans d'histoire. L'Hôtel Restaurant Ancien Grand Séminaire est un écrin de calme au coeur de la cité médiévale de Saint-Flour.",
                "adresse": "7, Rue des Planchettes 15100 Saint-Flour",
                "telephone": "04 71 60 10 08",
                "email": "reception.anciengrandseminaire@gmail.com",
                "site_web": "http://www.hotel-restaurant-ancien-grand-seminaire.fr",
                "photo": "https://static.apidae-tourisme.com/filestore/objets-touristiques/images/50/49/36516146.jpg"
            }
        },
        {
            "type": "Feature",
            "geometry": {
                "type": "Point",
                "coordinates": [
                    2.234303,
                    44.855226
                ]
            },
            "properties": {
                "nom": "Hôtel des Voyageurs",
                "description": "Dans le charmant village du Rouget, découvrez l'hôtel des Voyageurs, un établissement familial animé par une équipe jeune et dynamique.",
                "adresse": "20 rue du 15 Septembre 1945 15290 Le Rouget-Pers",
                "telephone": "04 71 46 10 14",
                "email": "hdvlerouget@gmail.com",
                "site_web": "https://hdvlerouget.com/",
                "photo": "https://static.apidae-tourisme.com/filestore/objets-touristiques/images/26/12/17697818.jpg"
            }
        },
        {
            "type": "Feature",
            "geometry": {
                "type": "Point",
                "coordinates": [
                    2.208839,
                    44.72005
                ]
            },
            "properties": {
                "nom": "La Châtelleraie",
                "description": "La Châtelleraie vous ouvre grand les portes de son domaine : son hôtellerie, son restaurant, ses gîtes, ainsi que son parc ombragé et sa piscine extérieure.",
                "adresse": "Château de la Devèze - 1 La Devèze 15600 Saint-Étienne-de-Maurs",
                "telephone": "04 71 49 09 09",
                "email": "contact@lachatelleraie.fr",
                "site_web": "https://lachatelleraie.fr/",
                "photo": "https://static.apidae-tourisme.com/filestore/objets-touristiques/images/124/154/18586236.jpg"
            }
        },
        {
            "type": "Feature",
            "geometry": {
                "type": "Point",
                "coordinates": [
                    2.482875,
                    45.052214
                ]
            },
            "properties": {
                "nom": "La Borie d'Hélipse",
                "description": "Un hôtel de charme au pied du village de Tournemire et dans l'esprit d'une maison de famille. L'excellence de l'hospitalité cantalienne à découvrir au travers de ses 12 chambres élégantes, son restaurant gastronomique et son spa.",
                "adresse": "5 chemin du Moulin 15310 Tournemire",
                "telephone": "04 71 47 05 75",
                "email": "contact@laboriedhelipse.com",
                "site_web": "https://laboriedhelipse.com/fr/",
                "photo": "https://static.apidae-tourisme.com/filestore/objets-touristiques/images/213/116/41579733.jpg"
            }
        },
        {
            "type": "Feature",
            "geometry": {
                "type": "Point",
                "coordinates": [
                    2.752215,
                    45.082286
                ]
            },
            "properties": {
                "nom": "Le Bufadou",
                "description": "Le Bufadou est le premier Camp de Base sportif de moyenne montagne.\r\nAu cœur de la station, au départ des pistes de ski. Nous vous proposons 7 ch de 2 à 6 pers. Réservation directement en ligne.",
                "adresse": "12 Route du Rocher du Cerf 15300 Le Lioran",
                "telephone": "04 71 49 55 76",
                "email": "contact@lebufadou.fr",
                "site_web": "https://www.lebufadou.fr",
                "photo": "https://static.apidae-tourisme.com/filestore/objets-touristiques/images/205/51/35271629.jpeg"
            }
        },
        {
            "type": "Feature",
            "geometry": {
                "type": "Point",
                "coordinates": [
                    2.870188,
                    45.344171
                ]
            },
            "properties": {
                "nom": "Auberge du Cézallier",
                "description": "L'auberge est un lieu sincère, chaleureux, joyeux et authentique.",
                "adresse": "1 place de l'Eglise 15190 Montgreleix",
                "telephone": "04 43 05 15 23",
                "email": "contact.aubergeducezallier@gmail.com",
                "site_web": "https://aubergecezallier.com/",
                "photo": "https://static.apidae-tourisme.com/filestore/objets-touristiques/images/127/209/30593407.jpg"
            }
        },
        {
            "type": "Feature",
            "geometry": {
                "type": "Point",
                "coordinates": [
                    2.644069,
                    44.968254
                ]
            },
            "properties": {
                "nom": "Maison Rouchet",
                "description": "",
                "adresse": "curebourse 15800 Saint-Clément",
                "telephone": "",
                "email": "maisonrouchet@hotmail.com",
                "site_web": "",
                "photo": ""
            }
        },
        {
            "type": "Feature",
            "geometry": {
                "type": "Point",
                "coordinates": [
                    2.478531,
                    45.334842
                ]
            },
            "properties": {
                "nom": "Le Relais (Ouverture début 2027)",
                "description": "Hébergement de charme dans une demeure de caractère de la fin du XIXème siècle. Chambres confortables avec salle d'eau et toilettes privatives. Salle dédiée aux petits-déjeuners, dans une atmosphère chaleureuse et authentique.",
                "adresse": "5 place de l église 15240 Saignes",
                "telephone": "06 09 52 72 34",
                "email": "jamdid21@gmail.com",
                "site_web": "",
                "photo": "https://static.apidae-tourisme.com/filestore/objets-touristiques/images/8/183/42186504.png"
            }
        }
    ]
}