{
    "type": "FeatureCollection",
    "features": [
        {
            "type": "Feature",
            "geometry": {
                "type": "Point",
                "coordinates": [
                    2.212887,
                    45.083945
                ]
            },
            "properties": {
                "nom": "Village Vacances Camping Paradis - La Gineste",
                "description": "En bordure du Lac d'Enchanet, la Gineste vous propose un accueil familial dans une ambiance entre lac et nature.",
                "adresse": ", La Gineste 15150 Arnac",
                "telephone": "04 71 62 91 90",
                "email": "contact@village-vacances-cantal.com",
                "site_web": "https://www.village-vacances-cantal.com/",
                "photo": "https://static.apidae-tourisme.com/filestore/objets-touristiques/images/227/11/30411747.jpg"
            }
        },
        {
            "type": "Feature",
            "geometry": {
                "type": "Point",
                "coordinates": [
                    2.188511,
                    44.714233
                ]
            },
            "properties": {
                "nom": "Domaine La Châtaigneraie",
                "description": "Dans le Sud Cantal, le Domaine de La Châtaigneraie vous accueille à Maurs, la \"Petite Nice du Cantal\".",
                "adresse": ", Route de Saint-Cirgues 15600 Maurs",
                "telephone": "04 71 46 25 00",
                "email": "info@vacances-chataigneraie.com",
                "site_web": "http://www.vacances-chataigneraie.com",
                "photo": "https://static.apidae-tourisme.com/filestore/objets-touristiques/images/216/174/37203672.jpg"
            }
        },
        {
            "type": "Feature",
            "geometry": {
                "type": "Point",
                "coordinates": [
                    2.888538,
                    45.347451
                ]
            },
            "properties": {
                "nom": "Le Lac des Estives",
                "description": "Le domaine est situé dans un environnement préservé : entre estives, collines ondulantes et panoramas à couper le souffle.\r\n1 gîte 15pl, 1 chalet 10pl, 10 gîtes 6/7 pl, 6 chalets 4 pl, salle jeux, piscine couverte, lac de 3 ha.",
                "adresse": "Le Lac 15190 Montgreleix",
                "telephone": "04 71 78 84 65",
                "email": "villagevacanceslacdesestives@gmail.com",
                "site_web": "http://www.lac-estives.com",
                "photo": "https://static.apidae-tourisme.com/filestore/objets-touristiques/images/125/52/8729725.jpg"
            }
        },
        {
            "type": "Feature",
            "geometry": {
                "type": "Point",
                "coordinates": [
                    2.716737,
                    45.2065
                ]
            },
            "properties": {
                "nom": "Naturessime Eco Village & Spa",
                "description": "Au pied du Puy Mary, Naturessime Éco Village et Spa labellisé Natitude  vous propose de venir vous ressourcer dans un espace naturel préservé.",
                "adresse": "3 route du limon 15400 Cheylade",
                "telephone": "06 24 43 23 11",
                "email": "naturessime@orange.fr",
                "site_web": "http://www.naturessime.fr",
                "photo": "https://static.apidae-tourisme.com/filestore/objets-touristiques/images/141/70/21055117.jpg"
            }
        },
        {
            "type": "Feature",
            "geometry": {
                "type": "Point",
                "coordinates": [
                    2.586658,
                    45.302898
                ]
            },
            "properties": {
                "nom": "Village Vacances du Lac de Menet",
                "description": "Bienvenue en Auvergne dans notre village vacances au bord du lac naturel de Menet. Village de Menet, labellisé \"Petite Cité de Caractère\".",
                "adresse": "18 route autour du lac, Lac de Menet 15400 Menet",
                "telephone": "04 71 67 97 66",
                "email": "contact@village-vacances-auvergne-lacdemenet.com",
                "site_web": "http://www.village-vacances-auvergne-lacdemenet.com",
                "photo": "https://static.apidae-tourisme.com/filestore/objets-touristiques/images/8/21/35919112.jpg"
            }
        },
        {
            "type": "Feature",
            "geometry": {
                "type": "Point",
                "coordinates": [
                    2.388387,
                    45.283416
                ]
            },
            "properties": {
                "nom": "VVF Cantal Salers Vendes",
                "description": "A la frontière de l’Auvergne et du Limousin, le VVF Cantal Salers Vendes est un écrin de verdure avec une vue exceptionnelle sur les monts du Cantal.",
                "adresse": "1 cité de la mine, Vendes 15240 Bassignac",
                "telephone": "04 71 69 71 81",
                "email": "accueil.vendes-bassignac@vvfvillages.fr",
                "site_web": "https://www.vvf.fr/villages-vacances/vacances-vendes-vvf-villages.html?startDate=&endDate=&adult=2&children=0&baby=0&animal=0",
                "photo": "https://static.apidae-tourisme.com/filestore/objets-touristiques/images/14/82/30888462.jpg"
            }
        },
        {
            "type": "Feature",
            "geometry": {
                "type": "Point",
                "coordinates": [
                    2.565327,
                    45.393294
                ]
            },
            "properties": {
                "nom": "VVF Cantal Champs-sur-Tarentaine",
                "description": "A la frontière entre le Puy-de-Dôme, la Corrèze et le Cantal, le VVF Cantal Champs-sur-Tarentaine est situé à proximité de Bort-les-Orgues et de ses fameuses orgues basaltiques.",
                "adresse": "Marchal Le Suc de Triviaux 15270 Champs-sur-Tarentaine-Marchal",
                "telephone": "04 71 78 78 22",
                "email": "accueil.champssurtarentaine@vvfvillages.fr",
                "site_web": "https://www.vvf.fr/location-vacances/tourisme-cantal-champs-sur-tarentaine.html?gad_source=1&gclid=Cj0KCQiAh8OtBhCQARIsAIkWb68PWeYsR0e8SNdesDe-Vyc8PG0zC3-EeaDxtxOgBsWJToyyMLbJld8aAvEvEALw_wcB",
                "photo": "https://static.apidae-tourisme.com/filestore/objets-touristiques/images/240/80/30888176.jpg"
            }
        },
        {
            "type": "Feature",
            "geometry": {
                "type": "Point",
                "coordinates": [
                    3.002295,
                    44.894485
                ]
            },
            "properties": {
                "nom": "Village vacances de Lanau",
                "description": "Sur deux hectares arborés offrant de vastes espaces, une vue sur les gorges de la Truyère, Cédric vous propose des gîtes confortables, bien équipés avec une literie de qualité, des installations fonctionnelles et une terrasse privative exposée plein sud.",
                "adresse": "Lanau, 1 route des vacances 15260 Neuvéglise-sur-Truyère",
                "telephone": "06 27 10 37 09",
                "email": "villagevacanceslanau@gmail.com",
                "site_web": "https://www.gite-cantal-lanau.fr/",
                "photo": "https://static.apidae-tourisme.com/filestore/objets-touristiques/images/84/113/36794708.jpg"
            }
        },
        {
            "type": "Feature",
            "geometry": {
                "type": "Point",
                "coordinates": [
                    2.736476,
                    45.081285
                ]
            },
            "properties": {
                "nom": "VVF Le Grand Lioran",
                "description": "Un village \"pleine forme\" au pied du plus étendu des stratovolcans d'Europe pour vivre pleinement la montagne en alliant le tonus et le bien-être à des activités de pleine nature. Un cadre idéal pour des vacances saines, actives et vivifiantes.",
                "adresse": "VVF \"Haut du Roy\", 2, route des Chamois 15580 Saint-Jacques-des-Blats",
                "telephone": "04 71 49 50 60",
                "email": "accueil.legrandlioran@vvfvillages.fr",
                "site_web": "https://www.vvf.fr/villages-vacances-hiver/vvf-villages-grand-lioran.html?startDate=&endDate=&adult=2&children=0&baby=0&animal=0",
                "photo": "https://static.apidae-tourisme.com/filestore/objets-touristiques/images/182/229/22996406.jpg"
            }
        },
        {
            "type": "Feature",
            "geometry": {
                "type": "Point",
                "coordinates": [
                    2.993731,
                    44.842147
                ]
            },
            "properties": {
                "nom": "VVF AUBRAC",
                "description": "Sur le plateau de l’Aubrac, le VVF Aubrac est situé à 3 km du centre de la plus méridionale des stations thermales d’Auvergne.",
                "adresse": "2 Lieu-dit Vergnolle 15110 Chaudes-Aigues",
                "telephone": "04 71 23 50 88",
                "email": "accueil.chaudes-aigues@vvfvillages.fr",
                "site_web": "https://www.vvf.fr/villages-vacances/vacances-chaudes-aigues-vvf-villages.html",
                "photo": "https://static.apidae-tourisme.com/filestore/objets-touristiques/images/111/240/36565103.jpg"
            }
        }
    ]
}